start=new Date('2023-02-24T00:00:00.000Z').valueOf();
sats=[{"LAUNCH_DATE":"2022-01-19","BSTAR":"0.00007720900000","OBJECT_TYPE":"PAYLOAD","FILE":"3828819","MEAN_MOTION":"15.08836137","INCLINATION":"53.2158","GP_ID":"226569176","TLE_LINE1":"1 51115U 22005M   23054.49704686  .00000941  00000-0  77209-4 0  9993","REF_FRAME":"TEME","EPOCH":"2023-02-23T11:55:44.848704","RA_OF_ASC_NODE":"232.9678","PERIAPSIS":"538.899","MEAN_MOTION_DDOT":"0.0000000000000","MEAN_ELEMENT_THEORY":"SGP4","MEAN_ANOMALY":"275.2784","COUNTRY_CODE":"US","TIME_SYSTEM":"UTC","RCS_SIZE":"LARGE","APOAPSIS":"540.615","REV_AT_EPOCH":"6127","OBJECT_ID":"2022-005M","TLE_LINE2":"2 51115  53.2158 232.9678 0001240  84.8350 275.2784 15.08836137 61274","CLASSIFICATION_TYPE":"U","EPHEMERIS_TYPE":"0","ARG_OF_PERICENTER":"84.8350","ECCENTRICITY":"0.00012400","PERIOD":"95.438","CENTER_NAME":"EARTH","ELEMENT_SET_NO":"999","SITE":"AFETR","MEAN_MOTION_DOT":"0.00000941","DECAY_DATE":null,"NORAD_CAT_ID":"51115","OBJECT_NAME":"STARLINK-3397","SEMIMAJOR_AXIS":"6917.892"},{"CLASSIFICATION_TYPE":"U","TLE_LINE2":"2 51116  53.2141 232.9032 0000962  83.9549 276.1553 15.08858494 61275","EPHEMERIS_TYPE":"0","REV_AT_EPOCH":"6127","OBJECT_ID":"2022-005N","ECCENTRICITY":"0.00009620","ARG_OF_PERICENTER":"83.9549","PERIOD":"95.436","SITE":"AFETR","ELEMENT_SET_NO":"999","CENTER_NAME":"EARTH","MEAN_MOTION_DOT":"0.00001699","DECAY_DATE":null,"NORAD_CAT_ID":"51116","OBJECT_NAME":"STARLINK-3243","SEMIMAJOR_AXIS":"6917.824","LAUNCH_DATE":"2022-01-19","FILE":"3828819","MEAN_MOTION":"15.08858494","OBJECT_TYPE":"PAYLOAD","BSTAR":"0.00012474000000","EPOCH":"2023-02-23T12:16:56.204832","INCLINATION":"53.2141","GP_ID":"226569428","TLE_LINE1":"1 51116U 22005N   23054.51176163  .00001699  00000-0  12474-3 0  9993","REF_FRAME":"TEME","RA_OF_ASC_NODE":"232.9032","PERIAPSIS":"539.023","MEAN_ANOMALY":"276.1553","MEAN_MOTION_DDOT":"0.0000000000000","MEAN_ELEMENT_THEORY":"SGP4","COUNTRY_CODE":"US","RCS_SIZE":"LARGE","APOAPSIS":"540.354","TIME_SYSTEM":"UTC"},{"PERIAPSIS":"538.972","MEAN_ANOMALY":"273.3907","MEAN_ELEMENT_THEORY":"SGP4","MEAN_MOTION_DDOT":"0.0000000000000","COUNTRY_CODE":"US","RCS_SIZE":"LARGE","APOAPSIS":"540.492","TIME_SYSTEM":"UTC","LAUNCH_DATE":"2022-01-19","FILE":"3829626","MEAN_MOTION":"15.08844367","OBJECT_TYPE":"PAYLOAD","BSTAR":"0.00005866300000","EPOCH":"2023-02-23T17:56:05.229600","TLE_LINE1":"1 51117U 22005P   23054.74728275  .00000646  00000-0  58663-4 0  9998","REF_FRAME":"TEME","GP_ID":"226588213","INCLINATION":"53.2137","RA_OF_ASC_NODE":"231.8454","MEAN_MOTION_DOT":"0.00000646","DECAY_DATE":null,"OBJECT_NAME":"STARLINK-3391","NORAD_CAT_ID":"51117","SEMIMAJOR_AXIS":"6917.867","TLE_LINE2":"2 51117  53.2137 231.8454 0001099  86.7211 273.3907 15.08844367 62420","CLASSIFICATION_TYPE":"U","EPHEMERIS_TYPE":"0","OBJECT_ID":"2022-005P","REV_AT_EPOCH":"6242","ECCENTRICITY":"0.00010990","ARG_OF_PERICENTER":"86.7211","PERIOD":"95.437","ELEMENT_SET_NO":"999","SITE":"AFETR","CENTER_NAME":"EARTH"},{"PERIAPSIS":"538.952","MEAN_ELEMENT_THEORY":"SGP4","MEAN_MOTION_DDOT":"0.0000000000000","MEAN_ANOMALY":"271.4660","COUNTRY_CODE":"US","TIME_SYSTEM":"UTC","RCS_SIZE":"LARGE","APOAPSIS":"540.573","LAUNCH_DATE":"2022-01-19","BSTAR":"0.00004412100000","OBJECT_TYPE":"PAYLOAD","FILE":"3829626","MEAN_MOTION":"15.08834379","TLE_LINE1":"1 51118U 22005Q   23054.76568752  .00000414  00000-0  44121-4 0  9990","REF_FRAME":"TEME","GP_ID":"226588220","INCLINATION":"53.2146","EPOCH":"2023-02-23T18:22:35.401728","RA_OF_ASC_NODE":"231.7624","MEAN_MOTION_DOT":"0.00000414","DECAY_DATE":null,"OBJECT_NAME":"STARLINK-3394","NORAD_CAT_ID":"51118","SEMIMAJOR_AXIS":"6917.898","OBJECT_ID":"2022-005Q","REV_AT_EPOCH":"6242","TLE_LINE2":"2 51118  53.2146 231.7624 0001171  88.6467 271.4660 15.08834379 62421","CLASSIFICATION_TYPE":"U","EPHEMERIS_TYPE":"0","ARG_OF_PERICENTER":"88.6467","ECCENTRICITY":"0.00011710","PERIOD":"95.438","CENTER_NAME":"EARTH","SITE":"AFETR","ELEMENT_SET_NO":"999"},{"COUNTRY_CODE":"US","RCS_SIZE":"LARGE","APOAPSIS":"540.524","TIME_SYSTEM":"UTC","PERIAPSIS":"538.966","MEAN_ANOMALY":"279.9254","MEAN_MOTION_DDOT":"0.0000000000000","MEAN_ELEMENT_THEORY":"SGP4","EPOCH":"2023-02-23T14:40:01.387488","INCLINATION":"53.2148","GP_ID":"226542344","TLE_LINE1":"1 51119U 22005R   23054.61112717  .00000476  00000-0  48017-4 0  9997","REF_FRAME":"TEME","RA_OF_ASC_NODE":"232.4582","LAUNCH_DATE":"2022-01-19","MEAN_MOTION":"15.08840026","FILE":"3828686","BSTAR":"0.00004801700000","OBJECT_TYPE":"PAYLOAD","NORAD_CAT_ID":"51119","OBJECT_NAME":"STARLINK-3390","SEMIMAJOR_AXIS":"6917.880","MEAN_MOTION_DOT":"0.00000476","DECAY_DATE":null,"PERIOD":"95.438","ELEMENT_SET_NO":"999","SITE":"AFETR","CENTER_NAME":"EARTH","CLASSIFICATION_TYPE":"U","TLE_LINE2":"2 51119  53.2148 232.4582 0001126  80.1866 279.9254 15.08840026 62401","EPHEMERIS_TYPE":"0","OBJECT_ID":"2022-005R","REV_AT_EPOCH":"6240","ECCENTRICITY":"0.00011260","ARG_OF_PERICENTER":"80.1866"},{"NORAD_CAT_ID":"51120","OBJECT_NAME":"STARLINK-3398","SEMIMAJOR_AXIS":"6917.863","MEAN_MOTION_DOT":"0.00002212","DECAY_DATE":null,"PERIOD":"95.437","ELEMENT_SET_NO":"999","SITE":"AFETR","CENTER_NAME":"EARTH","EPHEMERIS_TYPE":"0","TLE_LINE2":"2 51120  53.2146 231.0051 0001190  83.8441 276.2687 15.08845611 62457","CLASSIFICATION_TYPE":"U","REV_AT_EPOCH":"6245","OBJECT_ID":"2022-005S","ECCENTRICITY":"0.00011900","ARG_OF_PERICENTER":"83.8441","COUNTRY_CODE":"US","APOAPSIS":"540.551","RCS_SIZE":"LARGE","TIME_SYSTEM":"UTC","PERIAPSIS":"538.905","MEAN_ANOMALY":"276.2687","MEAN_MOTION_DDOT":"0.0000000000000","MEAN_ELEMENT_THEORY":"SGP4","EPOCH":"2023-02-23T22:26:20.690880","INCLINATION":"53.2146","GP_ID":"226588240","TLE_LINE1":"1 51120U 22005S   23054.93496170  .00002212  00000-0  15698-3 0  9990","REF_FRAME":"TEME","RA_OF_ASC_NODE":"231.0051","LAUNCH_DATE":"2022-01-19","MEAN_MOTION":"15.08845611","FILE":"3829627","BSTAR":"0.00015698000000","OBJECT_TYPE":"PAYLOAD"},{"MEAN_MOTION_DOT":"0.00001080","DECAY_DATE":null,"NORAD_CAT_ID":"51121","OBJECT_NAME":"STARLINK-3399","SEMIMAJOR_AXIS":"6917.853","REV_AT_EPOCH":"6244","OBJECT_ID":"2022-005T","TLE_LINE2":"2 51121  53.2160 231.2320 0001254  90.2030 269.9105 15.08848820 62440","CLASSIFICATION_TYPE":"U","EPHEMERIS_TYPE":"0","ARG_OF_PERICENTER":"90.2030","ECCENTRICITY":"0.00012540","PERIOD":"95.437","CENTER_NAME":"EARTH","SITE":"AFETR","ELEMENT_SET_NO":"999","PERIAPSIS":"538.851","MEAN_MOTION_DDOT":"0.0000000000000","MEAN_ELEMENT_THEORY":"SGP4","MEAN_ANOMALY":"269.9105","COUNTRY_CODE":"US","TIME_SYSTEM":"UTC","RCS_SIZE":"LARGE","APOAPSIS":"540.586","LAUNCH_DATE":"2022-01-19","BSTAR":"0.00008593900000","OBJECT_TYPE":"PAYLOAD","MEAN_MOTION":"15.08848820","FILE":"3829627","GP_ID":"226588234","INCLINATION":"53.2160","TLE_LINE1":"1 51121U 22005T   23054.88343932  .00001080  00000-0  85939-4 0  9990","REF_FRAME":"TEME","EPOCH":"2023-02-23T21:12:09.157248","RA_OF_ASC_NODE":"231.2320"},{"RA_OF_ASC_NODE":"232.7722","TLE_LINE1":"1 51122U 22005U   23054.54120749  .00000374  00000-0  41600-4 0  9995","REF_FRAME":"TEME","INCLINATION":"53.2133","GP_ID":"226567928","EPOCH":"2023-02-23T12:59:20.327136","BSTAR":"0.00004160000000","OBJECT_TYPE":"PAYLOAD","FILE":"3828819","MEAN_MOTION":"15.08835191","LAUNCH_DATE":"2022-01-19","TIME_SYSTEM":"UTC","APOAPSIS":"540.473","RCS_SIZE":"LARGE","COUNTRY_CODE":"US","MEAN_ELEMENT_THEORY":"SGP4","MEAN_MOTION_DDOT":"0.0000000000000","MEAN_ANOMALY":"274.0620","PERIAPSIS":"539.048","CENTER_NAME":"EARTH","ELEMENT_SET_NO":"999","SITE":"AFETR","PERIOD":"95.438","ARG_OF_PERICENTER":"86.0490","ECCENTRICITY":"0.00010300","REV_AT_EPOCH":"6128","OBJECT_ID":"2022-005U","TLE_LINE2":"2 51122  53.2133 232.7722 0001030  86.0490 274.0620 15.08835191 61285","EPHEMERIS_TYPE":"0","CLASSIFICATION_TYPE":"U","SEMIMAJOR_AXIS":"6917.895","OBJECT_NAME":"STARLINK-3373","NORAD_CAT_ID":"51122","DECAY_DATE":null,"MEAN_MOTION_DOT":"0.00000374"},{"MEAN_MOTION_DOT":"-0.00004774","DECAY_DATE":null,"NORAD_CAT_ID":"51123","OBJECT_NAME":"STARLINK-3392","SEMIMAJOR_AXIS":"6917.904","REV_AT_EPOCH":"6128","OBJECT_ID":"2022-005V","EPHEMERIS_TYPE":"0","TLE_LINE2":"2 51123  53.2139 232.8038 0001376  86.7815 273.3334 15.08832160 61281","CLASSIFICATION_TYPE":"U","ARG_OF_PERICENTER":"86.7815","ECCENTRICITY":"0.00013760","PERIOD":"95.438","CENTER_NAME":"EARTH","SITE":"AFETR","ELEMENT_SET_NO":"999","PERIAPSIS":"538.817","MEAN_MOTION_DDOT":"0.0000000000000","MEAN_ELEMENT_THEORY":"SGP4","MEAN_ANOMALY":"273.3334","COUNTRY_CODE":"US","TIME_SYSTEM":"UTC","RCS_SIZE":"LARGE","APOAPSIS":"540.721","LAUNCH_DATE":"2022-01-19","BSTAR":"-0.00028214000000","OBJECT_TYPE":"PAYLOAD","MEAN_MOTION":"15.08832160","FILE":"3828819","GP_ID":"226569177","INCLINATION":"53.2139","TLE_LINE1":"1 51123U 22005V   23054.53384370 -.00004774  00000-0 -28214-3 0  9992","REF_FRAME":"TEME","EPOCH":"2023-02-23T12:48:44.095680","RA_OF_ASC_NODE":"232.8038"},{"SEMIMAJOR_AXIS":"6917.838","NORAD_CAT_ID":"51124","OBJECT_NAME":"STARLINK-3389","DECAY_DATE":null,"MEAN_MOTION_DOT":"-0.00003120","ELEMENT_SET_NO":"999","SITE":"AFETR","CENTER_NAME":"EARTH","PERIOD":"95.437","ECCENTRICITY":"0.00010520","ARG_OF_PERICENTER":"102.8435","TLE_LINE2":"2 51124  53.2145 241.1250 0001052 102.8435 257.2674 15.08853888 62310","EPHEMERIS_TYPE":"0","CLASSIFICATION_TYPE":"U","REV_AT_EPOCH":"6231","OBJECT_ID":"2022-005W","RCS_SIZE":"LARGE","APOAPSIS":"540.431","TIME_SYSTEM":"UTC","COUNTRY_CODE":"US","MEAN_ANOMALY":"257.2674","MEAN_MOTION_DDOT":"0.0000000000000","MEAN_ELEMENT_THEORY":"SGP4","PERIAPSIS":"538.975","RA_OF_ASC_NODE":"241.1250","EPOCH":"2023-02-23T21:47:54.923712","INCLINATION":"53.2145","GP_ID":"226588531","TLE_LINE1":"1 51124U 22005W   23054.90827458 -.00003120  00000-0 -17794-3 0  9998","REF_FRAME":"TEME","MEAN_MOTION":"15.08853888","FILE":"3829629","BSTAR":"-0.00017794000000","OBJECT_TYPE":"PAYLOAD","LAUNCH_DATE":"2022-01-19"}];
